SL-16 R/B               
1 22566U 93016B   26045.03234931 -.00000240  00000+0 -98501-4 0  9996
2 22566  71.0054 264.8717 0010550 346.4063  13.6774 14.15301998698824
COSMOS 2242             
1 22626U 93024A   26045.16652704  .00002051  00000+0  17806-3 0  9996
2 22626  82.5189 289.2171 0017206  29.1951 331.0229 14.96452011776874
SL-16 R/B               
1 22803U 93059B   26045.25564962 -.00000143  00000+0 -46661-4 0  9993
2 22803  70.9890  60.5450 0019439 248.8617 111.0429 14.17228030676210
ARIANE 40 R/B           
1 22830U 93061H   26045.16560030  .00000194  00000+0  86746-4 0  9990
2 22830  98.4968 114.5114 0010458   0.4039 359.7152 14.32848202690733
COSMOS 2278             
1 23087U 94023A   26044.90517084  .00000047  00000+0  49384-4 0  9990
2 23087  71.0502 224.8575 0006871  59.3217 300.8582 14.14363590641440
SL-16 R/B               
1 23088U 94023B   26045.24520462  .00000283  00000+0  17070-3 0  9991
2 23088  70.9994 120.1260 0004617 307.7231  52.3473 14.15005757642779
SL-16 R/B               
1 23343U 94074B   26045.05161300  .00000529  00000+0  77543-4 0  9997
2 23343  97.7141  76.8232 0005354 306.3600 107.6907 14.79379441683757
SL-16 R/B               
1 23405U 94077B   26045.23596345  .00000328  00000+0  19186-3 0  9995
2 23405  70.9824  41.8301 0004056 232.0431 128.0325 14.15560522612914
ARIANE 40+ R/B          
1 23561U 95021B   26045.18024152  .00000300  00000+0  10976-3 0  9992
2 23561  98.4547 116.9756 0006391 202.9007 177.2235 14.39754814615869
SL-16 R/B               
1 23705U 95058B   26044.95911619  .00000114  00000+0  82634-4 0  9993
2 23705  71.0196 230.0756 0011799 166.1724 193.9725 14.15495429564498
SL-16 R/B               
1 24298U 96051B   26044.73261503  .00000102  00000+0  81803-4 0  9995
2 24298  70.7568 225.9463 0017116 181.9487 178.1568 14.12408773518260
ORBVIEW 2 (SEASTAR)     
1 24883U 97037A   26045.06753783  .00000334  00000+0  13223-3 0  9990
2 24883  98.8524 208.7590 0003117 119.7883 240.3612 14.35476448505085
