CCSDS_OMM_VERS = 2.0
CREATION_DATE  = 
ORIGINATOR     = 

OBJECT_NAME    = SL-16 R/B
OBJECT_ID      = 1993-016B
CENTER_NAME    = EARTH
REF_FRAME      = TEME
TIME_SYSTEM    = UTC
MEAN_ELEMENT_THEORY = SGP/SGP4

EPOCH          = 2026-02-14T00:46:34.980384
MEAN_MOTION    = 14.15301998
ECCENTRICITY   = .00105506
INCLINATION    = 71.0054
RA_OF_ASC_NODE = 264.8717
ARG_OF_PERICENTER = 346.4063
MEAN_ANOMALY   = 13.6774

EPHEMERIS_TYPE = 0
CLASSIFICATION_TYPE = U
NORAD_CAT_ID   = 22566
ELEMENT_SET_NO = 999
REV_AT_EPOCH   = 69882
BSTAR          = -.98500626E-4
MEAN_MOTION_DOT = -.24E-5
MEAN_MOTION_DDOT = 0

CCSDS_OMM_VERS = 2.0
CREATION_DATE  = 
ORIGINATOR     = 

OBJECT_NAME    = COSMOS 2242
OBJECT_ID      = 1993-024A
CENTER_NAME    = EARTH
REF_FRAME      = TEME
TIME_SYSTEM    = UTC
MEAN_ELEMENT_THEORY = SGP/SGP4

EPOCH          = 2026-02-14T03:59:47.936256
MEAN_MOTION    = 14.96452011
ECCENTRICITY   = .00172069
INCLINATION    = 82.5189
RA_OF_ASC_NODE = 289.2171
ARG_OF_PERICENTER = 29.1951
MEAN_ANOMALY   = 331.0229

EPHEMERIS_TYPE = 0
CLASSIFICATION_TYPE = U
NORAD_CAT_ID   = 22626
ELEMENT_SET_NO = 999
REV_AT_EPOCH   = 77687
BSTAR          = .17806459E-3
MEAN_MOTION_DOT = .2051E-4
MEAN_MOTION_DDOT = 0

CCSDS_OMM_VERS = 2.0
CREATION_DATE  = 
ORIGINATOR     = 

OBJECT_NAME    = SL-16 R/B
OBJECT_ID      = 1993-059B
CENTER_NAME    = EARTH
REF_FRAME      = TEME
TIME_SYSTEM    = UTC
MEAN_ELEMENT_THEORY = SGP/SGP4

EPOCH          = 2026-02-14T06:08:08.127168
MEAN_MOTION    = 14.17228030
ECCENTRICITY   = .00194394
INCLINATION    = 70.9890
RA_OF_ASC_NODE = 60.5450
ARG_OF_PERICENTER = 248.8617
MEAN_ANOMALY   = 111.0429

EPHEMERIS_TYPE = 0
CLASSIFICATION_TYPE = U
NORAD_CAT_ID   = 22803
ELEMENT_SET_NO = 999
REV_AT_EPOCH   = 67621
BSTAR          = -.46661429E-4
MEAN_MOTION_DOT = -.143E-5
MEAN_MOTION_DDOT = 0

CCSDS_OMM_VERS = 2.0
CREATION_DATE  = 
ORIGINATOR     = 

OBJECT_NAME    = ARIANE 40 R/B
OBJECT_ID      = 1993-061H
CENTER_NAME    = EARTH
REF_FRAME      = TEME
TIME_SYSTEM    = UTC
MEAN_ELEMENT_THEORY = SGP/SGP4

EPOCH          = 2026-02-14T03:58:27.865920
MEAN_MOTION    = 14.32848202
ECCENTRICITY   = .00104587
INCLINATION    = 98.4968
RA_OF_ASC_NODE = 114.5114
ARG_OF_PERICENTER = 0.4039
MEAN_ANOMALY   = 359.7152

EPHEMERIS_TYPE = 0
CLASSIFICATION_TYPE = U
NORAD_CAT_ID   = 22830
ELEMENT_SET_NO = 999
REV_AT_EPOCH   = 69073
BSTAR          = .86746196E-4
MEAN_MOTION_DOT = .194E-5
MEAN_MOTION_DDOT = 0

CCSDS_OMM_VERS = 2.0
CREATION_DATE  = 
ORIGINATOR     = 

OBJECT_NAME    = COSMOS 2278
OBJECT_ID      = 1994-023A
CENTER_NAME    = EARTH
REF_FRAME      = TEME
TIME_SYSTEM    = UTC
MEAN_ELEMENT_THEORY = SGP/SGP4

EPOCH          = 2026-02-13T21:43:26.760576
MEAN_MOTION    = 14.14363590
ECCENTRICITY   = .00068712
INCLINATION    = 71.0502
RA_OF_ASC_NODE = 224.8575
ARG_OF_PERICENTER = 59.3217
MEAN_ANOMALY   = 300.8582

EPHEMERIS_TYPE = 0
CLASSIFICATION_TYPE = U
NORAD_CAT_ID   = 23087
ELEMENT_SET_NO = 999
REV_AT_EPOCH   = 64144
BSTAR          = .4938449E-4
MEAN_MOTION_DOT = .47E-6
MEAN_MOTION_DDOT = 0

CCSDS_OMM_VERS = 2.0
CREATION_DATE  = 
ORIGINATOR     = 

OBJECT_NAME    = SL-16 R/B
OBJECT_ID      = 1994-023B
CENTER_NAME    = EARTH
REF_FRAME      = TEME
TIME_SYSTEM    = UTC
MEAN_ELEMENT_THEORY = SGP/SGP4

EPOCH          = 2026-02-14T05:53:05.679168
MEAN_MOTION    = 14.15005757
ECCENTRICITY   = .0004617
INCLINATION    = 70.9994
RA_OF_ASC_NODE = 120.1260
ARG_OF_PERICENTER = 307.7231
MEAN_ANOMALY   = 52.3473

EPHEMERIS_TYPE = 0
CLASSIFICATION_TYPE = U
NORAD_CAT_ID   = 23088
ELEMENT_SET_NO = 999
REV_AT_EPOCH   = 64277
BSTAR          = .17070015E-3
MEAN_MOTION_DOT = .283E-5
MEAN_MOTION_DDOT = 0

CCSDS_OMM_VERS = 2.0
CREATION_DATE  = 
ORIGINATOR     = 

OBJECT_NAME    = SL-16 R/B
OBJECT_ID      = 1994-074B
CENTER_NAME    = EARTH
REF_FRAME      = TEME
TIME_SYSTEM    = UTC
MEAN_ELEMENT_THEORY = SGP/SGP4

EPOCH          = 2026-02-14T01:14:19.363200
MEAN_MOTION    = 14.79379441
ECCENTRICITY   = .00053544
INCLINATION    = 97.7141
RA_OF_ASC_NODE = 76.8232
ARG_OF_PERICENTER = 306.3600
MEAN_ANOMALY   = 107.6907

EPHEMERIS_TYPE = 0
CLASSIFICATION_TYPE = U
NORAD_CAT_ID   = 23343
ELEMENT_SET_NO = 999
REV_AT_EPOCH   = 68375
BSTAR          = .77543209E-4
MEAN_MOTION_DOT = .529E-5
MEAN_MOTION_DDOT = 0

CCSDS_OMM_VERS = 2.0
CREATION_DATE  = 
ORIGINATOR     = 

OBJECT_NAME    = SL-16 R/B
OBJECT_ID      = 1994-077B
CENTER_NAME    = EARTH
REF_FRAME      = TEME
TIME_SYSTEM    = UTC
MEAN_ELEMENT_THEORY = SGP/SGP4

EPOCH          = 2026-02-14T05:39:47.242080
MEAN_MOTION    = 14.15560522
ECCENTRICITY   = .00040562
INCLINATION    = 70.9824
RA_OF_ASC_NODE = 41.8301
ARG_OF_PERICENTER = 232.0431
MEAN_ANOMALY   = 128.0325

EPHEMERIS_TYPE = 0
CLASSIFICATION_TYPE = U
NORAD_CAT_ID   = 23405
ELEMENT_SET_NO = 999
REV_AT_EPOCH   = 61291
BSTAR          = .19185607E-3
MEAN_MOTION_DOT = .328E-5
MEAN_MOTION_DDOT = 0

CCSDS_OMM_VERS = 2.0
CREATION_DATE  = 
ORIGINATOR     = 

OBJECT_NAME    = ARIANE 40+ R/B
OBJECT_ID      = 1995-021B
CENTER_NAME    = EARTH
REF_FRAME      = TEME
TIME_SYSTEM    = UTC
MEAN_ELEMENT_THEORY = SGP/SGP4

EPOCH          = 2026-02-14T04:19:32.867328
MEAN_MOTION    = 14.39754814
ECCENTRICITY   = .00063919
INCLINATION    = 98.4547
RA_OF_ASC_NODE = 116.9756
ARG_OF_PERICENTER = 202.9007
MEAN_ANOMALY   = 177.2235

EPHEMERIS_TYPE = 0
CLASSIFICATION_TYPE = U
NORAD_CAT_ID   = 23561
ELEMENT_SET_NO = 999
REV_AT_EPOCH   = 61586
BSTAR          = .10976268E-3
MEAN_MOTION_DOT = .3E-5
MEAN_MOTION_DDOT = 0

CCSDS_OMM_VERS = 2.0
CREATION_DATE  = 
ORIGINATOR     = 

OBJECT_NAME    = SL-16 R/B
OBJECT_ID      = 1995-058B
CENTER_NAME    = EARTH
REF_FRAME      = TEME
TIME_SYSTEM    = UTC
MEAN_ELEMENT_THEORY = SGP/SGP4

EPOCH          = 2026-02-13T23:01:07.638816
MEAN_MOTION    = 14.15495429
ECCENTRICITY   = .0011799
INCLINATION    = 71.0196
RA_OF_ASC_NODE = 230.0756
ARG_OF_PERICENTER = 166.1724
MEAN_ANOMALY   = 193.9725

EPHEMERIS_TYPE = 0
CLASSIFICATION_TYPE = U
NORAD_CAT_ID   = 23705
ELEMENT_SET_NO = 999
REV_AT_EPOCH   = 56449
BSTAR          = .82633836E-4
MEAN_MOTION_DOT = .114E-5
MEAN_MOTION_DDOT = 0

CCSDS_OMM_VERS = 2.0
CREATION_DATE  = 
ORIGINATOR     = 

OBJECT_NAME    = SL-16 R/B
OBJECT_ID      = 1996-051B
CENTER_NAME    = EARTH
REF_FRAME      = TEME
TIME_SYSTEM    = UTC
MEAN_ELEMENT_THEORY = SGP/SGP4

EPOCH          = 2026-02-13T17:34:57.938592
MEAN_MOTION    = 14.12408773
ECCENTRICITY   = .00171163
INCLINATION    = 70.7568
RA_OF_ASC_NODE = 225.9463
ARG_OF_PERICENTER = 181.9487
MEAN_ANOMALY   = 178.1568

EPHEMERIS_TYPE = 0
CLASSIFICATION_TYPE = U
NORAD_CAT_ID   = 24298
ELEMENT_SET_NO = 999
REV_AT_EPOCH   = 51826
BSTAR          = .81803304E-4
MEAN_MOTION_DOT = .102E-5
MEAN_MOTION_DDOT = 0

CCSDS_OMM_VERS = 2.0
CREATION_DATE  = 
ORIGINATOR     = 

OBJECT_NAME    = ORBVIEW 2 (SEASTAR)
OBJECT_ID      = 1997-037A
CENTER_NAME    = EARTH
REF_FRAME      = TEME
TIME_SYSTEM    = UTC
MEAN_ELEMENT_THEORY = SGP/SGP4

EPOCH          = 2026-02-14T01:37:15.268512
MEAN_MOTION    = 14.35476448
ECCENTRICITY   = .00031175
INCLINATION    = 98.8524
RA_OF_ASC_NODE = 208.7590
ARG_OF_PERICENTER = 119.7883
MEAN_ANOMALY   = 240.3612

EPHEMERIS_TYPE = 0
CLASSIFICATION_TYPE = U
NORAD_CAT_ID   = 24883
ELEMENT_SET_NO = 999
REV_AT_EPOCH   = 50508
BSTAR          = .13222617E-3
MEAN_MOTION_DOT = .334E-5
MEAN_MOTION_DDOT = 0

